#dP2021  1 25 12  0  0.00000000      96 __u+U ITR00 EXT  IAC
## 2142 129600.00000000   900.00000000 59239 0.5000000000000
+  115   C06C07C08C09C10C11C12C13C14C16C19C20C21C22C23C24C25
+        C26C27C28C29C30C32C33C34C35C36C37C38C39C40C43C44C45
+        C46E01E02E03E04E05E07E08E09E11E12E13E14E15E18E19E21
+        E24E25E26E27E30E31E33E36G01G02G03G04G05G06G07G08G09
+        G10G11G12G13G14G15G16G17G18G19G20G21G22G23G24G25G26
+        G27G28G29G30G31G32J01J02J03R01R02R03R04R05R07R08R09
+        R11R12R13R14R15R16R17R18R19R20R21R22R24  0  0  0  0
++        10 10  9 10 11 11  9  9 11  9 10  9  9  9  8 11 10
++        10 10  8 10  8  8  8  9  8  9  9 10 10 11  7 11  9
++        11  7  9  8  8  7  8  8  8  7  9  9  9  9  7  9  8
++         6  8  7  7  7  7  8  7  7  8  8  6  8  7  8  7  7
++         8 10  8  8  7  7  8  9  8  9  7  7  7  7  7  7  7
++         8  7  8  8  7  8 10  9  9  9 10  7  7  9  9  8  8
++         9  8  9  9  8  7  9  9  9  9  9  9  9  0  0  0  0
%c M  cc GPS ccc cccc cccc cccc cccc ccccc ccccc ccccc ccccc
%c cc cc ccc ccc cccc cccc cccc cccc ccccc ccccc ccccc ccccc
%f  0.0000000  0.000000000  0.00000000000  0.000000000000000
%f  0.0000000  0.000000000  0.00000000000  0.000000000000000
%i    0    0    0    0      0      0      0      0         0
%i    0    0    0    0      0      0      0      0         0
/* IAC                                ULTRA-RAPID PREDICTION
/* S/V CLOCKS ARE ALIGNED TO GNSS TIME                      
/* G:C1WC2W R:C1PC2P E:C1XC5X C:C2IC6I J:C1CC2S             
/* PCV:IGS14_2134 OL/AL:FES2004  NONE     YN ORB:CoN CLK:CoN
*  2021 01 25 23  0  0.00000000
PC06  -6717.215338  34160.608072  24537.380386     35.379672
PC07 -17570.520088  23043.395440 -30496.598676   -262.596444
PC08 -22531.899438  34657.756860   7291.342156   -926.057483
PC09   3771.784444  40651.167085  11636.099072    778.386082
PC10  -2950.364765  26133.778779 -32747.133407    -97.642463
PC11  10391.918598  24240.125602   9125.966114   -911.377669
PC12   -705.413588  26526.897148  -8562.736448    753.815450
PC13 -10498.118353  35149.942386  20653.319354    113.642852
PC14  17339.791213  16376.795752  14467.723766    -14.240461
PC16  -5188.691201  34471.160974  23952.618287   -672.103647
PC19 -24219.759245 -12458.985795  -6083.820566    704.212049
PC20  -9344.957098 -17442.992429 -19673.200624   -910.652660
PC21 -11887.150206  12192.095403  22126.350961   -808.631025
PC22 -25479.508118   -174.150144  11409.070417   -856.739687
PC23  23564.636670  -9403.865387 -11632.589221   -878.793873
PC24  -2153.441237  20075.551312 -19261.958226   -747.953048
PC25  15899.413499   6679.475447 -21951.099851   -910.349749
PC26 -16942.393895  21298.639982  -6089.478258    957.749615
PC27   7446.148046 -21437.715958  16213.941843    472.507298
PC28  15613.572444  -2810.508475  22964.759177   -117.341534
PC29 -15261.490129 -16827.545162 -16205.691308    343.550827
PC30  -5762.528919 -27287.755434    463.766070    436.139205
PC32  11800.057843 -12277.879511 -22094.888960   -886.559697
PC33  24213.528242  12400.056703   6194.584707   -932.957872
PC34   6122.582000  27240.180600    183.847816   -754.825894
PC35 -15629.812962   3066.863370 -22911.988360   -448.513474
PC36 -15474.266307  -7356.297791  22044.509524   -768.848944
PC37  17987.238231 -20683.400475   5317.108324   -861.286280
PC38 -20655.329840  35692.031709   8498.944269    126.102719
PC39  -1822.262818  35324.145043  23048.479908     27.799844
PC40  -9094.050779  20753.251459 -35556.497880    124.956856
PC43  15122.094295  17319.207082  15831.673464   -568.552485
PC44  -6940.172172  21583.668263 -16295.274475      5.382758
PC45 -23488.817823   9537.570501  11632.883504    344.944895
PC46   1425.058054 -19705.789754  19725.289263    435.328649
PE01   2396.355337  16387.720287 -24533.512089  -1032.464027
PE02  -2485.893098 -16366.354867  24536.563179    193.701649
PE03 -10875.185761 -24198.687569 -13144.635835   -391.400687
PE04  22838.626692  18205.061142  -4817.100166   -696.375757
PE05   7654.191408 -16070.435919 -23652.737023   -309.898641
PE07 -21539.194376  -1354.219518  20262.353629   -492.432371
PE08 -23006.540409 -17916.465000   5115.179060   6056.610855
PE09  21383.623903   1166.598265 -20429.753351   5786.975152
PE11  17417.734069  -8976.557845  22182.554689   6415.445643
PE12  12202.293149  13620.363837  23289.226811   5388.472652
PE13 -17314.573311   8643.709876 -22386.259108    410.920387
PE14  10816.247616  23978.033142  -2558.009143  -1307.418817
PE15 -12199.002270 -13490.875055 -23336.618053    832.500091
PE18 -21171.110840 -19188.974097 -11807.945331  -1429.021361
PE19   8944.370606  23912.996126  14981.873291    187.556322
PE21 -18131.670070  16363.427306 -16718.586596   -644.869102
PE24  28901.539591  -6251.940960  -1682.323794   -709.047562
PE25  18307.745915 -16318.097571  16586.855982   -525.085827
PE26 -12078.820678  25935.353538  -7575.388502   2223.170604
PE27 -28778.819718   6806.444783   1062.763728     43.490851
PE30 -21849.969568  -7314.993362  18558.759506   3233.513410
PE31  22457.331993   6676.230494 -18091.950239   -477.693318
PE33    -73.385010  27655.323184  10576.628366   -465.160757
PE36  12254.225329 -25635.105564   8301.474988    449.347561
PG01  14252.767268 -21901.049849   3352.548316    773.739564
PG02 -16693.259874   4119.114957 -19589.064315   -569.971363
PG03  14844.624511 -12907.489526 -17877.509940    -65.834909
PG04   6890.666433 -15964.541859 -20058.003826   -175.519163
PG05 -26396.975124   3242.037105   1737.287435    -31.959145
PG06 -10618.769638 -10917.810871 -21689.109814     -4.230146
PG07   3905.609861 -23782.400747  10919.129997     35.235335
PG08  12184.042695  -8855.363921  21878.147158     -7.938727
PG09  -4056.324630 -22871.229816 -12921.490482   -316.528765
PG10  15293.227339  11960.325196  18348.403296    -47.284120
PG11  11697.569447 -18230.414478  15154.738512    -42.827785
PG12 -18885.638502  10152.682005 -15816.016856      7.905972
PG13 -16642.057968  -2394.167776  20454.170647     89.926472
PG14 -12876.127004 -13379.945703  18984.945928     90.557681
PG15 -11282.305557  11022.850094  20998.330551   -173.839861
PG16  26786.656478    803.800493    737.494643   -270.458849
PG17 -14221.397489 -22243.487857  -2491.240421    384.858001
PG18  -2547.512508  23040.239545  12911.019621    343.708703
PG19 -16855.516913 -17670.897348 -10831.413453    -47.091972
PG20   2714.648701  15461.764822  21364.481861    524.997535
PG21  16792.386964 -16667.637849  12368.387194     89.992772
PG22  21640.619301 -10836.803429 -10548.809298   -691.624349
PG23   3453.437295  14887.770329  21700.154842    117.281024
PG24 -15308.234265  19736.657023   8190.853590      3.184297
PG25  -4410.659022  15195.964101 -21548.517657     67.256166
PG26  24149.687894   5344.966191 -10076.226960     35.357832
PG27  18156.452305   5011.730618  18718.224283    -63.408150
PG28 -15333.215776 -12942.185405  17870.910022    624.689860
PG29   2034.028869  22757.683916 -13546.591442   -282.727138
PG30  -5313.224034 -18293.155997  18466.244143   -374.694950
PG31  12925.075205   8317.296259 -21724.227399    -96.125966
PG32  16311.840842  20767.009666  -3498.687325     16.092841
PJ01 -27655.997614  21161.675323  28822.183956   -337.791366
PJ02 -36256.450532  18996.410816  -5643.309130      1.094600
PJ03 -18876.515694  27733.723825 -20831.837434     -0.266607
PR01 -21780.041121  -4868.262458  12362.678263     74.024105
PR02  -6499.091311   8828.454837  23067.261224    464.383862
PR03  10741.284365  15437.912493  17299.539837     29.796483
PR04  21739.081434  13222.137746   1892.275989     71.491355
PR05  20578.033064   3760.423453 -14607.691469     65.394226
PR07 -11256.379581 -15475.435348 -16807.686133    -42.243749
PR08 -21763.628536 -13161.502284  -1741.979659    -57.048559
PR09  16878.917412 -16160.283244  10164.108782     20.583015
PR11 -14315.535305  -2748.872053  20941.767124      4.165998
PR12 -22497.334291   9314.580784   7576.605167    199.671015
PR13 -17219.750343  16075.832209  -9795.845487    -49.811880
PR14  -1586.470285  13194.976809 -21766.478735     60.261244
PR15  14611.646616   2787.888689 -20708.283077    105.732272
PR16  22434.628045 -10323.351273  -6684.007408    -10.581266
PR17   1940.896389  25141.858964   3738.399482    394.438373
PR18   8325.318511  15690.793232  18353.815757     64.429675
PR19  10380.910053  -1147.825686  23278.728873   -129.394274
PR20   6620.938330 -20309.198546  13921.414246   -431.937612
PR21  -2344.202133 -24945.054778  -4848.024373   -183.002393
PR22  -8527.903797 -14568.493795 -19089.831507    -94.425432
PR24  -6342.087062  20902.798386 -13140.081420     29.135955
EOF
